OBJECT_NAME,OBJECT_ID,EPOCH,MEAN_MOTION,ECCENTRICITY,INCLINATION,RA_OF_ASC_NODE,ARG_OF_PERICENTER,MEAN_ANOMALY,EPHEMERIS_TYPE,CLASSIFICATION_TYPE,NORAD_CAT_ID,ELEMENT_SET_NO,REV_AT_EPOCH,BSTAR,MEAN_MOTION_DOT,MEAN_MOTION_DDOT
STARLINK-37321,2026-114S,2026-06-10T11:37:35.920128,15.80928491,.0000531,53.1589,235.7054,50.2780,309.8290,0,U,69198,999,371,.94477E-3,.190425E-2,0
STARLINK-37406,2026-114T,2026-06-10T11:36:31.254048,15.80932834,.0001213,53.1584,235.7006,68.1344,291.9808,0,U,69199,999,371,.96194E-3,.194016E-2,0
STARLINK-37761,2026-114U,2026-06-10T11:35:26.327040,15.80935852,.0000973,53.1584,235.6951,40.7210,319.3885,0,U,69200,999,371,.1081E-2,.218787E-2,0
STARLINK-37754,2026-114V,2026-06-10T11:34:04.857888,15.80921739,.0000681,53.1585,235.6893,71.6645,288.4451,0,U,69201,999,371,.81347E-3,.163291E-2,0
STARLINK-37649,2026-114W,2026-06-10T11:33:16.836768,15.80927788,.0001379,53.1585,235.6863,62.6313,297.4850,0,U,69202,999,371,.86242E-3,.173413E-2,0
STARLINK-37604,2026-114X,2026-06-10T11:32:12.021216,15.80915659,.0001196,53.1583,235.6806,61.3298,298.7845,0,U,69203,999,371,.85495E-3,.171776E-2,0
STARLINK-37669,2026-114Y,2026-06-10T11:31:07.235040,15.80916663,.000124,53.1584,235.6753,63.4970,296.6179,0,U,69204,999,371,.73519E-3,.147199E-2,0
STARLINK-37691,2026-114Z,2026-06-10T12:00:02.000160,15.78078139,.0001317,53.1592,235.6042,79.0397,21.0091,0,U,69205,999,373,-.47282E-3,-.82065E-3,0
STARLINK-37671,2026-114AA,2026-06-10T11:28:57.602208,15.80929481,.0001318,53.1583,235.6654,67.0035,293.1127,0,U,69206,999,371,.87408E-3,.175831E-2,0
STARLINK-37647,2026-114AB,2026-06-10T11:30:02.010816,15.80948248,.0001178,53.1584,235.6700,58.6967,301.4171,0,U,69207,999,371,.10323E-2,.208764E-2,0
STARLINK-37562,2026-114AC,2026-06-10T11:27:11.227392,15.79121077,.0001547,53.1586,235.6560,38.7253,321.3880,0,U,69208,999,371,-.81312E-2,-.1326456E-1,0
STARLINK-37682,2026-114AD,2026-06-10T11:25:43.170240,15.80940380,.0000925,53.1582,235.6492,76.7921,283.3205,0,U,69209,999,371,.11149E-2,.225898E-2,0
STARLINK-37402,2026-114AE,2026-06-10T11:24:38.249280,15.80951398,.0000894,53.1583,235.6441,88.3066,271.8059,0,U,69210,999,371,.11294E-2,.229052E-2,0
STARLINK-37613,2026-115A,2026-06-10T12:00:02.000160,15.59876514,.000115,97.2845,178.5368,88.5940,343.5785,0,U,69211,999,361,-.34001E-1,-.2392272E-1,0
STARLINK-37713,2026-115B,2026-06-10T12:00:02.000160,15.71959079,.0001687,97.2844,178.5873,106.2797,92.8353,0,U,69212,999,361,-.22536E-1,-.2558091E-1,0
STARLINK-37716,2026-115C,2026-06-10T08:01:47.220384,15.80510137,.0001114,97.2830,178.4228,123.1871,236.9504,0,U,69213,999,360,-.19506E-2,-.354035E-2,0
STARLINK-37620,2026-115D,2026-06-10T12:00:02.000160,15.55462046,.0001262,97.2842,178.5131,107.4944,270.1243,0,U,69214,999,361,-.40653E-1,-.2418081E-1,0
STARLINK-37700,2026-115E,2026-06-10T12:00:02.000160,15.49141020,.0001123,97.2848,178.4260,99.0227,79.6869,0,U,69215,999,361,.19102E-2,.105021E-2,0
STARLINK-37766,2026-115F,2026-06-10T12:30:52.458336,15.80880274,.000112,97.2827,178.6274,72.2513,287.8877,0,U,69216,999,363,.11177E-2,.220081E-2,0
STARLINK-37763,2026-115G,2026-06-10T12:00:02.000160,15.76591112,.0001911,97.2842,178.6002,103.9483,126.5112,0,U,69217,999,361,-.18786E-1,-.2542242E-1,0
STARLINK-37724,2026-115H,2026-06-10T12:28:45.312096,15.80849941,.0001301,97.2829,178.6294,86.4077,273.7340,0,U,69218,999,363,.5864E-3,.113834E-2,0
STARLINK-37758,2026-115J,2026-06-10T12:24:07.745184,15.80898068,.0001058,97.2824,178.6342,117.7572,242.3803,0,U,69219,999,363,.11E-2,.216679E-2,0
STARLINK-37201,2026-115K,2026-06-10T12:25:54.018048,15.80904908,.0001259,97.2831,178.6328,128.9948,231.1433,0,U,69220,999,363,.87293E-3,.171077E-2,0
STARLINK-37728,2026-115L,2026-06-10T12:22:25.698144,15.80866609,.0000996,97.2830,178.6363,95.3818,264.7563,0,U,69221,999,363,.7274E-3,.141802E-2,0
STARLINK-37760,2026-115M,2026-06-10T12:26:22.898112,15.80882772,.0001958,97.2829,178.6324,54.9020,305.2432,0,U,69222,999,363,.11114E-2,.218847E-2,0
STARLINK-37759,2026-115N,2026-06-10T12:00:02.000160,15.76968721,.0001547,97.2839,178.6180,107.5114,163.2257,0,U,69223,999,361,-.17918E-1,-.2477022E-1,0
STARLINK-37725,2026-115P,2026-06-10T12:22:03.654912,15.80946625,.0001537,97.2831,178.6361,41.2981,318.8403,0,U,69224,999,363,.14315E-2,.284901E-2,0
STARLINK-37770,2026-115Q,2026-06-10T10:51:55.268064,15.80980237,.0000691,97.2833,178.5684,130.7569,229.3760,0,U,69225,999,362,.13077E-2,.259897E-2,0
STARLINK-37736,2026-115R,2026-06-10T10:50:53.822112,15.80898451,.000103,97.2830,178.5694,96.7610,263.3776,0,U,69226,999,362,.10054E-2,.197603E-2,0
STARLINK-37737,2026-115S,2026-06-10T12:19:10.969824,15.80877690,.0001066,97.2828,178.6387,74.1810,285.9576,0,U,69227,999,363,.93514E-3,.183309E-2,0
