STARLINK-37321          
1 69198U 26114S   26161.48444352  .00190425  00000+0  94477-3 0  9991
2 69198  53.1589 235.7054 0000531  50.2780 309.8290 15.80928491  3712
STARLINK-37406          
1 69199U 26114T   26161.48369507  .00194016  00000+0  96194-3 0  9998
2 69199  53.1584 235.7006 0001213  68.1344 291.9808 15.80932834  3719
STARLINK-37761          
1 69200U 26114U   26161.48294360  .00218787  00000+0  10810-2 0  9997
2 69200  53.1584 235.6951 0000973  40.7210 319.3885 15.80935852  3713
STARLINK-37754          
1 69201U 26114V   26161.48200067  .00163291  00000+0  81347-3 0  9992
2 69201  53.1585 235.6893 0000681  71.6645 288.4451 15.80921739  3715
STARLINK-37649          
1 69202U 26114W   26161.48144487  .00173413  00000+0  86242-3 0  9992
2 69202  53.1585 235.6863 0001379  62.6313 297.4850 15.80927788  3713
STARLINK-37604          
1 69203U 26114X   26161.48069469  .00171776  00000+0  85495-3 0  9998
2 69203  53.1583 235.6806 0001196  61.3298 298.7845 15.80915659  3716
STARLINK-37669          
1 69204U 26114Y   26161.47994485  .00147199  00000+0  73519-3 0  9999
2 69204  53.1584 235.6753 0001240  63.4970 296.6179 15.80916663  3712
STARLINK-37691          
1 69205U 26114Z   26161.50002315 -.00082065  00000+0 -47282-3 0  9996
2 69205  53.1592 235.6042 0001317  79.0397  21.0091 15.78078139  3733
STARLINK-37671          
1 69206U 26114AA  26161.47844447  .00175831  00000+0  87408-3 0  9999
2 69206  53.1583 235.6654 0001318  67.0035 293.1127 15.80929481  3718
STARLINK-37647          
1 69207U 26114AB  26161.47918994  .00208764  00000+0  10323-2 0  9992
2 69207  53.1584 235.6700 0001178  58.6967 301.4171 15.80948248  3710
STARLINK-37562          
1 69208U 26114AC  26161.47721328 -.01326456  00000+0 -81312-2 0  9994
2 69208  53.1586 235.6560 0001547  38.7253 321.3880 15.79121077  3713
STARLINK-37682          
1 69209U 26114AD  26161.47619410  .00225898  00000+0  11149-2 0  9999
2 69209  53.1582 235.6492 0000925  76.7921 283.3205 15.80940380  3713
STARLINK-37402          
1 69210U 26114AE  26161.47544270  .00229052  00000+0  11294-2 0  9999
2 69210  53.1583 235.6441 0000894  88.3066 271.8059 15.80951398  3714
STARLINK-37613          
1 69211U 26115A   26161.50002315 -.02392272  00000+0 -34001-1 0  9993
2 69211  97.2845 178.5368 0001150  88.5940 343.5785 15.59876514  3611
STARLINK-37713          
1 69212U 26115B   26161.50002315 -.02558091  00000+0 -22536-1 0  9997
2 69212  97.2844 178.5873 0001687 106.2797  92.8353 15.71959079  3612
STARLINK-37716          
1 69213U 26115C   26161.33457431 -.00354035  00000+0 -19506-2 0  9996
2 69213  97.2830 178.4228 0001114 123.1871 236.9504 15.80510137  3603
STARLINK-37620          
1 69214U 26115D   26161.50002315 -.02418081  00000+0 -40653-1 0  9993
2 69214  97.2842 178.5131 0001262 107.4944 270.1243 15.55462046  3619
STARLINK-37700          
1 69215U 26115E   26161.50002315  .00105021  00000+0  19102-2 0  9993
2 69215  97.2848 178.4260 0001123  99.0227  79.6869 15.49141020  3619
STARLINK-37766          
1 69216U 26115F   26161.52144049  .00220081  00000+0  11177-2 0  9995
2 69216  97.2827 178.6274 0001120  72.2513 287.8877 15.80880274  3632
STARLINK-37763          
1 69217U 26115G   26161.50002315 -.02542242  00000+0 -18786-1 0  9995
2 69217  97.2842 178.6002 0001911 103.9483 126.5112 15.76591112  3619
STARLINK-37724          
1 69218U 26115H   26161.51996889  .00113834  00000+0  58640-3 0  9997
2 69218  97.2829 178.6294 0001301  86.4077 273.7340 15.80849941  3636
STARLINK-37758          
1 69219U 26115J   26161.51675631  .00216679  00000+0  11000-2 0  9996
2 69219  97.2824 178.6342 0001058 117.7572 242.3803 15.80898068  3633
STARLINK-37201          
1 69220U 26115K   26161.51798632  .00171077  00000+0  87293-3 0  9995
2 69220  97.2831 178.6328 0001259 128.9948 231.1433 15.80904908  3637
STARLINK-37728          
1 69221U 26115L   26161.51557521  .00141802  00000+0  72740-3 0  9990
2 69221  97.2830 178.6363 0000996  95.3818 264.7563 15.80866609  3637
STARLINK-37760          
1 69222U 26115M   26161.51832058  .00218847  00000+0  11114-2 0  9993
2 69222  97.2829 178.6324 0001958  54.9020 305.2432 15.80882772  3633
STARLINK-37759          
1 69223U 26115N   26161.50002315 -.02477022  00000+0 -17918-1 0  9991
2 69223  97.2839 178.6180 0001547 107.5114 163.2257 15.76968721  3617
STARLINK-37725          
1 69224U 26115P   26161.51532008  .00284901  00000+0  14315-2 0  9997
2 69224  97.2831 178.6361 0001537  41.2981 318.8403 15.80946625  3633
STARLINK-37770          
1 69225U 26115Q   26161.45272301  .00259897  00000+0  13077-2 0  9998
2 69225  97.2833 178.5684 0000691 130.7569 229.3760 15.80980237  3627
STARLINK-37736          
1 69226U 26115R   26161.45201183  .00197603  00000+0  10054-2 0  9997
2 69226  97.2830 178.5694 0001030  96.7610 263.3776 15.80898451  3623
STARLINK-37737          
1 69227U 26115S   26161.51332141  .00183309  00000+0  93514-3 0  9995
2 69227  97.2828 178.6387 0001066  74.1810 285.9576 15.80877690  3633
